NORAD_CAT_ID,OBJECT_NAME,OBJECT_TYPE,EPOCH,MEAN_MOTION,ECCENTRICITY,INCLINATION,RA_OF_ASC_NODE,ARG_OF_PERICENTER,MEAN_ANOMALY,BSTAR,MEAN_MOTION_DOT,MEAN_MOTION_DDOT,TLE_LINE0,TLE_LINE1,TLE_LINE2,SEMIMAJOR_AXIS,PERIOD,APOGEE,PERIGEE,DECAYED
55404.0,STARLINK-5607,PAYLOAD,2024-06-24 05:24:28,14.98333335,0.0003381,69.999,196.543,271.1037,88.9735,4.7965e-05,4.79e-06,0.0,0 STARLINK-5607,1 55404U 23014P   24176.22533234  .00000479  00000-0  47965-4 0  9997,2 55404  69.9990 196.5430 0003381 271.1037  88.9735 14.98333335 77721,6950.183,96.107,574.397,569.698,0.0
55404.0,STARLINK-5607,PAYLOAD,2024-06-24 10:12:52,14.9833383,0.0003375,69.9991,196.0382,271.6681,88.4092,5.1996e-05,5.27e-06,0.0,0 STARLINK-5607,1 55404U 23014P   24176.42561153  .00000527  00000-0  51996-4 0  9993,2 55404  69.9991 196.0382 0003375 271.6681  88.4092 14.98333830 78694,6950.181,96.107,574.392,569.7,0.0
55404.0,STARLINK-5607,PAYLOAD,2024-06-25 10:14:54,14.98328137,0.0003355,69.9992,193.5136,271.7273,88.3502,-4.3954e-06,-1.46e-06,0.0,0 STARLINK-5607,1 55404U 23014P   24177.42701582 -.00000146  00000-0 -43954-5 0  9991,2 55404  69.9992 193.5136 0003355 271.7273  88.3502 14.98328137 77902,6950.199,96.107,574.395,569.732,0.0
55404.0,STARLINK-5607,PAYLOAD,2024-06-26 10:16:54,14.98333422,0.0003303,69.9993,190.9891,266.5354,93.5427,-1.167e-06,-1.07e-06,0.0,0 STARLINK-5607,1 55404U 23014P   24178.42841075 -.00000107  00000-0 -11670-5 0  9991,2 55404  69.9993 190.9891 0003303 266.5354  93.5427 14.98333422 78051,6950.182,96.107,574.343,569.752,0.0
55404.0,STARLINK-5607,PAYLOAD,2024-06-27 10:18:56,14.98326663,0.0003343,69.9992,188.4643,268.2544,91.8232,3.546e-06,-5.1e-07,0.0,0 STARLINK-5607,1 55404U 23014P   24179.42981533 -.00000051  00000-0  35460-5 0  9996,2 55404  69.9992 188.4643 0003343 268.2544  91.8232 14.98326663 78202,6950.203,96.107,574.392,569.745,0.0
55404.0,STARLINK-5607,PAYLOAD,2024-06-27 18:19:36,14.98328168,0.0003342,69.9992,187.6221,267.9547,92.123,2.0727e-06,-6.8e-07,0.0,0 STARLINK-5607,1 55404U 23014P   24179.76361490 -.00000068  00000-0  20727-5 0  9995,2 55404  69.9992 187.6221 0003342 267.9547  92.1230 14.98328168 79196,6950.199,96.107,574.386,569.741,0.0
55404.0,STARLINK-5607,PAYLOAD,2024-06-28 10:20:56,14.98331686,0.000337,69.999,185.9391,268.2073,91.87,1.5628e-05,9.3e-07,0.0,0 STARLINK-5607,1 55404U 23014P   24180.43121251  .00000093  00000-0  15628-4 0  9990,2 55404  69.9990 185.9391 0003370 268.2073  91.8700 14.98331686 78356,6950.188,96.107,574.395,569.71,0.0
55404.0,STARLINK-5607,PAYLOAD,2024-06-29 10:22:56,14.98338354,0.0003387,69.999,183.4143,268.1283,91.9488,0.00013234,1.487e-05,0.0,0 STARLINK-5607,1 55404U 23014P   24181.43260321  .00001487  00000-0  13234-3 0  9991,2 55404  69.9990 183.4143 0003387 268.1283  91.9488 14.98338354 78504,6950.167,96.106,574.386,569.678,0.0
55404.0,STARLINK-5607,PAYLOAD,2024-06-30 10:24:56,14.98344516,0.0003453,69.9989,180.8893,268.5291,91.5472,0.00012819,1.437e-05,0.0,0 STARLINK-5607,1 55404U 23014P   24182.43399196  .00001437  00000-0  12819-3 0  9998,2 55404  69.9989 180.8893 0003453 268.5291  91.5472 14.98344516 78654,6950.148,96.106,574.413,569.613,0.0
55404.0,STARLINK-5607,PAYLOAD,2024-06-30 16:49:29,14.98337551,0.0003454,69.9988,180.2158,268.9021,91.1743,1.9756e-05,1.43e-06,0.0,0 STARLINK-5607,1 55404U 23014P   24182.70103726  .00000143  00000-0  19756-4 0  9991,2 55404  69.9988 180.2158 0003454 268.9021  91.1743 14.98337551 78699,6950.17,96.107,574.435,569.634,0.0
55404.0,STARLINK-5607,PAYLOAD,2024-07-01 05:38:34,14.98327412,0.0003237,69.9996,178.8702,268.2312,91.8476,-0.00012866,-1.628e-05,0.0,0 STARLINK-5607,1 55404U 23014P   24183.23512706 -.00001628  00000-0 -12866-3 0  9997,2 55404  69.9996 178.8702 0003237 268.2312  91.8476 14.98327412 78775,6950.201,96.107,574.316,569.816,0.0
55404.0,STARLINK-5607,PAYLOAD,2024-07-01 10:26:59,14.98327708,0.0003225,69.9997,178.3652,268.9007,91.1783,-0.00012003,-1.525e-05,0.0,0 STARLINK-5607,1 55404U 23014P   24183.43540665 -.00001525  00000-0 -12003-3 0  9993,2 55404  69.9997 178.3652 0003225 268.9007  91.1783 14.98327708 79740,6950.2,96.107,574.306,569.824,0.0
55404.0,STARLINK-5607,PAYLOAD,2024-07-01 16:51:31,14.98328389,0.0003225,69.9997,177.692,269.64,90.439,-0.00014897,-1.87e-05,0.0,0 STARLINK-5607,1 55404U 23014P   24183.70244700 -.00001870  00000-0 -14897-3 0  9990,2 55404  69.9997 177.6920 0003225 269.6400  90.4390 14.98328389 79781,6950.198,96.107,574.304,569.821,0.0
55404.0,STARLINK-5607,PAYLOAD,2024-07-02 05:40:36,14.98326411,0.0003153,69.9999,176.3456,269.045,91.0348,-0.00015309,-1.919e-05,0.0,0 STARLINK-5607,1 55404U 23014P   24184.23652864 -.00001919  00000-0 -15309-3 0  9996,2 55404  69.9999 176.3456 0003153 269.0450  91.0348 14.98326411 78921,6950.204,96.107,574.26,569.878,0.0
55404.0,STARLINK-5607,PAYLOAD,2024-07-02 10:29:00,14.98325409,0.0003169,69.9999,175.8406,269.0616,91.0179,-0.00015372,-1.926e-05,0.0,0 STARLINK-5607,1 55404U 23014P   24184.43680990 -.00001926  00000-0 -15372-3 0  9997,2 55404  69.9999 175.8406 0003169 269.0616  91.0179 14.98325409 79896,6950.207,96.107,574.275,569.87,0.0
55404.0,STARLINK-5607,PAYLOAD,2024-07-02 16:53:32,14.98323244,0.0003239,69.9997,175.1676,270.2364,89.8424,-4.9565e-05,-6.84e-06,0.0,0 STARLINK-5607,1 55404U 23014P   24184.70384923 -.00000684  00000-0 -49565-4 0  9996,2 55404  69.9997 175.1676 0003239 270.2364  89.8424 14.98323244 79936,6950.214,96.107,574.33,569.828,0.0
55404.0,STARLINK-5607,PAYLOAD,2024-07-03 08:54:53,14.98322394,0.0003329,69.9994,173.4839,269.6966,90.3812,7.1688e-05,7.62e-06,0.0,0 STARLINK-5607,1 55404U 23014P   24185.37144993  .00000762  00000-0  71688-4 0  9997,2 55404  69.9994 173.4839 0003329 269.6966  90.3812 14.98322394 79095,6950.216,96.107,574.395,569.768,0.0
55404.0,STARLINK-5607,PAYLOAD,2024-07-04 08:56:53,14.98329166,0.0003345,69.9993,170.9589,269.2515,90.826,0.00013233,1.486e-05,0.0,0 STARLINK-5607,1 55404U 23014P   24186.37284718  .00001486  00000-0  13233-3 0  9993,2 55404  69.9993 170.9589 0003345 269.2515  90.8260 14.98329166 79245,6950.195,96.107,574.385,569.736,0.0
55404.0,STARLINK-5607,PAYLOAD,2024-07-04 23:22:06,14.98330068,0.0003293,69.9995,169.4441,269.2571,90.8211,6.1917e-05,6.46e-06,0.0,0 STARLINK-5607,1 55404U 23014P   24186.97368891  .00000646  00000-0  61917-4 0  9994,2 55404  69.9995 169.4441 0003293 269.2571  90.8211 14.98330068 80275,6950.193,96.107,574.346,569.769,0.0
55404.0,STARLINK-5607,PAYLOAD,2024-07-05 08:58:54,14.98334457,0.0003257,69.9996,168.4343,269.0205,91.0581,9.4002e-05,1.029e-05,0.0,0 STARLINK-5607,1 55404U 23014P   24187.37424471  .00001029  00000-0  94002-4 0  9993,2 55404  69.9996 168.4343 0003257 269.0205  91.0581 14.98334457 79398,6950.179,96.107,574.308,569.78,0.0
55404.0,STARLINK-5607,PAYLOAD,2024-07-05 21:47:59,14.98330146,0.0003154,69.9998,167.0878,269.2455,90.8343,-2.2554e-05,-3.62e-06,0.0,0 STARLINK-5607,1 55404U 23014P   24187.90833009 -.00000362  00000-0 -22554-4 0  9997,2 55404  69.9998 167.0878 0003154 269.2455  90.8343 14.98330146 80412,6950.192,96.107,574.25,569.865,0.0
55404.0,STARLINK-5607,PAYLOAD,2024-07-06 04:12:31,14.9833003,0.0003156,69.9998,166.4145,269.209,90.8708,-2.3235e-05,-3.7e-06,0.0,0 STARLINK-5607,1 55404U 23014P   24188.17536993 -.00000370  00000-0 -23235-4 0  9995,2 55404  69.9998 166.4145 0003156 269.2090  90.8708 14.98330030 79515,6950.193,96.107,574.251,569.864,0.0
55404.0,STARLINK-5607,PAYLOAD,2024-07-06 09:00:55,14.98331869,0.0003142,69.9998,165.9096,269.3013,90.7786,-2.6366e-06,-1.24e-06,0.0,0 STARLINK-5607,1 55404U 23014P   24188.37564796 -.00000124  00000-0 -26366-5 0  9995,2 55404  69.9998 165.9096 0003142 269.3013  90.7786 14.98331869 80489,6950.187,96.107,574.236,569.868,0.0
55404.0,STARLINK-5607,PAYLOAD,2024-07-06 15:25:28,14.98330013,0.0003126,69.9999,165.2363,269.5008,90.5793,-1.7866e-05,-3.06e-06,0.0,0 STARLINK-5607,1 55404U 23014P   24188.64268907 -.00000306  00000-0 -17866-4 0  9996,2 55404  69.9999 165.2363 0003126 269.5008  90.5793 14.98330013 80529,6950.193,96.107,574.23,569.885,0.0
55404.0,STARLINK-5607,PAYLOAD,2024-07-07 04:14:32,14.98331926,0.0003113,69.9998,163.8901,268.2082,91.872,-4.0946e-05,-5.82e-06,0.0,0 STARLINK-5607,1 55404U 23014P   24189.17676830 -.00000582  00000-0 -40946-4 0  9994,2 55404  69.9998 163.8901 0003113 268.2082  91.8720 14.98331926 79665,6950.187,96.107,574.216,569.888,0.0
55404.0,STARLINK-5607,PAYLOAD,2024-07-07 09:02:56,14.98331213,0.0003054,70.0,163.3854,267.512,92.5689,-2.4174e-05,-3.81e-06,0.0,0 STARLINK-5607,1 55404U 23014P   24189.37704822 -.00000381  00000-0 -24174-4 0  9991,2 55404  70.0000 163.3854 0003054 267.5120  92.5689 14.98331213 80633,6950.189,96.107,574.177,569.932,0.0
55404.0,STARLINK-5607,PAYLOAD,2024-07-08 07:28:49,14.98333691,0.0003061,70.0,161.0288,267.0753,93.0056,6.8316e-05,7.22e-06,0.0,0 STARLINK-5607,1 55404U 23014P   24190.31168325  .00000722  00000-0  68316-4 0  9992,2 55404  70.0000 161.0288 0003061 267.0753  93.0056 14.98333691 79830,6950.181,96.107,574.174,569.919,0.0
55404.0,STARLINK-5607,PAYLOAD,2024-07-08 15:29:29,14.98331151,0.0003217,69.9997,160.1875,267.4547,92.6244,1.1439e-05,4.3e-07,0.0,0 STARLINK-5607,1 55404U 23014P   24190.64548548  .00000043  00000-0  11439-4 0  9997,2 55404  69.9997 160.1875 0003217 267.4547  92.6244 14.98331151 80826,6950.189,96.107,574.29,569.818,0.0
55404.0,STARLINK-5607,PAYLOAD,2024-07-09 04:18:34,14.98327047,0.0003035,70.0001,158.8413,267.9783,92.1028,1.0856e-05,3.7e-07,0.0,0 STARLINK-5607,1 55404U 23014P   24191.17956923  .00000037  00000-0  10856-4 0  9991,2 55404  70.0001 158.8413 0003035 267.9783  92.1028 14.98327047 79969,6950.202,96.107,574.176,569.958,0.0
55404.0,STARLINK-5607,PAYLOAD,2024-07-09 07:30:50,14.98323924,0.0002992,70.0001,158.5047,266.1526,93.9291,8.9258e-05,9.72e-06,0.0,0 STARLINK-5607,1 55404U 23014P   24191.31308944  .00000972  00000-0  89258-4 0  9991,2 55404  70.0001 158.5047 0002992 266.1526  93.9291 14.98323924 80925,6950.212,96.107,574.156,569.997,0.0
